NORAD_CAT_ID,OBJECT_NAME,OBJECT_TYPE,EPOCH,MEAN_MOTION,ECCENTRICITY,INCLINATION,RA_OF_ASC_NODE,ARG_OF_PERICENTER,MEAN_ANOMALY,BSTAR,MEAN_MOTION_DOT,MEAN_MOTION_DDOT,TLE_LINE0,TLE_LINE1,TLE_LINE2,SEMIMAJOR_AXIS,PERIOD,APOGEE,PERIGEE,DECAYED
52534.0,STARLINK-3952,PAYLOAD,2023-05-10 04:13:54,15.0883493,0.0001075,53.217,93.2305,86.9392,273.1723,9.4048e-05,1.209e-05,0.0,0 STARLINK-3952,1 52534U 22051B   23130.17632864  .00001209  00000-0  94048-4 0  9996,2 52534  53.2170  93.2305 0001075  86.9392 273.1723 15.08834930 56008,6917.896,95.438,540.505,539.017,0.0
52534.0,STARLINK-3952,PAYLOAD,2023-05-11 04:04:41,15.08846087,0.0001198,53.217,88.7686,87.1793,272.9336,9.5153e-05,1.227e-05,0.0,0 STARLINK-3952,1 52534U 22051B   23131.16992259  .00001227  00000-0  95153-4 0  9991,2 52534  53.2170  88.7686 0001198  87.1793 272.9336 15.08846087 56152,6917.862,95.437,540.556,538.898,0.0
52534.0,STARLINK-3952,PAYLOAD,2023-05-12 03:55:29,15.08834164,9.97e-05,53.2164,84.3123,87.3881,272.7225,-4.3104e-06,-3.56e-06,0.0,0 STARLINK-3952,1 52534U 22051B   23132.16353575 -.00000356  00000-0 -43104-5 0  9998,2 52534  53.2164  84.3123 0000997  87.3881 272.7225 15.08834164 55639,6917.898,95.438,540.453,539.074,0.0
52534.0,STARLINK-3952,PAYLOAD,2023-05-13 03:46:15,15.08827584,0.0001228,53.2172,79.8496,96.5456,263.5676,0.00042788,6.526e-05,0.0,0 STARLINK-3952,1 52534U 22051B   23133.15712796  .00006526  00000-0  42788-3 0  9990,2 52534  53.2172  79.8496 0001228  96.5456 263.5676 15.08827584 55780,6917.918,95.438,540.633,538.934,0.0
52534.0,STARLINK-3952,PAYLOAD,2023-05-14 03:37:03,15.08835807,0.0001218,53.2173,75.3895,86.9277,273.1855,8.4547e-05,1.058e-05,0.0,0 STARLINK-3952,1 52534U 22051B   23134.15073680  .00001058  00000-0  84547-4 0  9998,2 52534  53.2173  75.3895 0001218  86.9277 273.1855 15.08835807 55938,6917.893,95.438,540.601,538.916,0.0
52534.0,STARLINK-3952,PAYLOAD,2023-05-15 03:27:50,15.08848091,0.0001241,53.2182,70.9296,87.715,272.3984,8.7256e-05,1.101e-05,0.0,0 STARLINK-3952,1 52534U 22051B   23135.14432981  .00001101  00000-0  87256-4 0  9990,2 52534  53.2182  70.9296 0001241  87.7150 272.3984 15.08848091 56089,6917.856,95.437,540.579,538.862,0.0
52534.0,STARLINK-3952,PAYLOAD,2023-05-15 13:00:08,15.08865513,0.0001377,53.2187,69.1424,70.6355,289.4786,-0.00032175,-5.409e-05,0.0,0 STARLINK-3952,1 52534U 22051B   23135.54176351 -.00005409  00000-0 -32175-3 0  9996,2 52534  53.2187  69.1424 0001377  70.6355 289.4786 15.08865513 56149,6917.802,95.436,540.62,538.715,0.0
52534.0,STARLINK-3952,PAYLOAD,2023-05-16 04:54:00,15.08840198,0.0001452,53.2188,66.1668,97.0735,263.0423,8.1135e-05,1.004e-05,0.0,0 STARLINK-3952,1 52534U 22051B   23136.20417569  .00001004  00000-0  81135-4 0  9995,2 52534  53.2188  66.1668 0001452  97.0735 263.0423 15.08840198 56245,6917.88,95.438,540.749,538.74,0.0
52534.0,STARLINK-3952,PAYLOAD,2023-05-17 01:34:00,15.08849666,0.0001598,53.2191,62.3006,109.7662,250.3502,6.5899e-05,7.61e-06,0.0,0 STARLINK-3952,1 52534U 22051B   23137.06528825  .00000761  00000-0  65899-4 0  9996,2 52534  53.2191  62.3006 0001598 109.7662 250.3502 15.08849666 56374,6917.851,95.437,540.821,538.61,0.0
52534.0,STARLINK-3952,PAYLOAD,2023-05-18 01:24:48,15.08834831,0.0001355,53.2178,57.848,75.5148,284.5994,4.6381e-05,4.5e-06,0.0,0 STARLINK-3952,1 52534U 22051B   23138.05889863  .00000450  00000-0  46381-4 0  9998,2 52534  53.2178  57.8480 0001355  75.5148 284.5994 15.08834831 56523,6917.896,95.438,540.699,538.824,0.0
52534.0,STARLINK-3952,PAYLOAD,2023-05-18 04:35:34,15.08840608,0.0001242,53.2177,57.2503,83.7323,276.381,1.4429e-05,-5.8e-07,0.0,0 STARLINK-3952,1 52534U 22051B   23138.19137628 -.00000058  00000-0  14429-4 0  9991,2 52534  53.2177  57.2503 0001242  83.7323 276.3810 15.08840608 57215,6917.879,95.438,540.603,538.884,0.0
52534.0,STARLINK-3952,PAYLOAD,2023-05-19 18:44:50,15.08836912,0.000123,53.2182,50.1132,78.3569,281.7561,4.5406e-05,4.35e-06,0.0,0 STARLINK-3952,1 52534U 22051B   23139.78113988  .00000435  00000-0  45406-4 0  9997,2 52534  53.2182  50.1132 0001230  78.3569 281.7561 15.08836912 56787,6917.89,95.438,540.606,538.904,0.0
52534.0,STARLINK-3952,PAYLOAD,2023-05-19 21:55:36,15.08837142,0.00012,53.2184,49.5185,77.4985,282.6142,4.0595e-05,3.58e-06,0.0,0 STARLINK-3952,1 52534U 22051B   23139.91362010  .00000358  00000-0  40595-4 0  9992,2 52534  53.2184  49.5185 0001200  77.4985 282.6142 15.08837142 57476,6917.889,95.438,540.584,538.924,0.0
52534.0,STARLINK-3952,PAYLOAD,2023-05-20 20:11:00,15.08843585,9.99e-05,53.2176,45.3567,96.0953,264.0153,0.00012401,1.687e-05,0.0,0 STARLINK-3952,1 52534U 22051B   23140.84097239  .00001687  00000-0  12401-3 0  9994,2 52534  53.2176  45.3567 0000999  96.0953 264.0153 15.08843585 57611,6917.869,95.437,540.426,539.043,0.0
52534.0,STARLINK-3952,PAYLOAD,2023-05-21 00:57:08,15.08851148,9.65e-05,53.2174,44.4652,90.6637,269.4466,0.00018998,2.738e-05,0.0,0 STARLINK-3952,1 52534U 22051B   23141.03968638  .00002738  00000-0  18998-3 0  9991,2 52534  53.2174  44.4652 0000965  90.6637 269.4466 15.08851148 56974,6917.846,95.437,540.379,539.044,0.0
52534.0,STARLINK-3952,PAYLOAD,2023-05-21 16:51:02,15.08830854,9.4e-05,53.2175,41.4916,86.9886,273.1213,-1.8061e-05,-5.75e-06,0.0,0 STARLINK-3952,1 52534U 22051B   23141.70210846 -.00000575  00000-0 -18061-4 0  9997,2 52534  53.2175  41.4916 0000940  86.9886 273.1213 15.08830854 57077,6917.908,95.438,540.424,539.123,0.0
52534.0,STARLINK-3952,PAYLOAD,2023-05-21 20:01:48,15.08826672,8.6e-05,53.2178,40.8953,105.7862,254.3225,-0.00016777,-2.956e-05,0.0,0 STARLINK-3952,1 52534U 22051B   23141.83458493 -.00002956  00000-0 -16777-3 0  9999,2 52534  53.2178  40.8953 0000860 105.7862 254.3225 15.08826672 57762,6917.921,95.438,540.381,539.191,0.0
52534.0,STARLINK-3952,PAYLOAD,2023-05-22 10:20:16,15.08834527,9.72e-05,53.2182,38.2186,99.1946,260.9156,2.804e-06,-2.43e-06,0.0,0 STARLINK-3952,1 52534U 22051B   23142.43074635 -.00000243  00000-0  28040-5 0  9992,2 52534  53.2182  38.2186 0000972  99.1946 260.9156 15.08834527 57853,6917.897,95.438,540.435,539.09,0.0
52534.0,STARLINK-3952,PAYLOAD,2023-05-22 19:52:34,15.08846304,9.71e-05,53.2182,36.4343,101.261,258.8491,0.00012778,1.747e-05,0.0,0 STARLINK-3952,1 52534U 22051B   23142.82818185  .00001747  00000-0  12778-3 0  9999,2 52534  53.2182  36.4343 0000971 101.2610 258.8491 15.08846304 57911,6917.861,95.437,540.398,539.054,0.0
52534.0,STARLINK-3952,PAYLOAD,2023-05-23 02:14:07,15.0885502,9.7e-05,53.218,35.2446,111.4185,248.6911,0.0003605,5.457e-05,0.0,0 STARLINK-3952,1 52534U 22051B   23143.09313798  .00005457  00000-0  36050-3 0  9990,2 52534  53.2180  35.2446 0000970 111.4185 248.6911 15.08855020 57288,6917.834,95.437,540.371,539.028,0.0
52534.0,STARLINK-3952,PAYLOAD,2023-05-23 22:54:08,15.08837745,0.0001298,53.2172,31.3785,89.8061,270.308,0.00016814,2.389e-05,0.0,0 STARLINK-3952,1 52534U 22051B   23143.95426932  .00002389  00000-0  16814-3 0  9997,2 52534  53.2172  31.3785 0001298  89.8061 270.3080 15.08837745 58089,6917.887,95.438,540.65,538.854,0.0
52534.0,STARLINK-3952,PAYLOAD,2023-05-25 21:00:19,15.08847727,9.24e-05,53.2174,22.7561,82.6042,277.5055,9.6562e-05,1.25e-05,0.0,0 STARLINK-3952,1 52534U 22051B   23145.87522419  .00001250  00000-0  96562-4 0  9992,2 52534  53.2174  22.7561 0000924  82.6042 277.5055 15.08847727 58376,6917.857,95.437,540.361,539.083,0.0
52534.0,STARLINK-3952,PAYLOAD,2023-05-26 01:46:29,15.08837521,0.0001054,53.2176,21.8631,90.4499,269.6614,0.00055683,8.585e-05,0.0,0 STARLINK-3952,1 52534U 22051B   23146.07394891  .00008585  00000-0  55683-3 0  9992,2 52534  53.2176  21.8631 0001054  90.4499 269.6614 15.08837521 57737,6917.888,95.438,540.482,539.024,0.0
52534.0,STARLINK-3952,PAYLOAD,2023-05-26 16:04:57,15.08833985,5.52e-05,53.2181,19.1864,72.0125,288.0927,-6.0157e-05,-1.245e-05,0.0,0 STARLINK-3952,1 52534U 22051B   23146.67010964 -.00001245  00000-0 -60157-4 0  9995,2 52534  53.2181  19.1864 0000552  72.0125 288.0927 15.08833985 57827,6917.899,95.438,540.146,539.382,0.0
52534.0,STARLINK-3952,PAYLOAD,2023-05-26 20:51:07,15.08836311,0.0001084,53.2184,18.2927,107.2819,252.8291,1.8426e-05,5e-08,0.0,0 STARLINK-3952,1 52534U 22051B   23146.86883131  .00000005  00000-0  18426-4 0  9993,2 52534  53.2184  18.2927 0001084 107.2819 252.8291 15.08836311 58529,6917.892,95.438,540.507,539.007,0.0
52534.0,STARLINK-3952,PAYLOAD,2023-05-27 20:41:54,15.08844495,9.73e-05,53.2183,13.8344,105.533,254.577,-0.00010519,-1.962e-05,0.0,0 STARLINK-3952,1 52534U 22051B   23147.86243081 -.00001962  00000-0 -10519-3 0  9997,2 52534  53.2183  13.8344 0000973 105.5330 254.5770 15.08844495 58003,6917.867,95.437,540.405,539.059,0.0
52534.0,STARLINK-3952,PAYLOAD,2023-05-27 22:17:16,15.08862274,8.29e-05,53.2177,13.5385,91.6074,268.5013,-0.00030297,-5.109e-05,0.0,0 STARLINK-3952,1 52534U 22051B   23147.92866476 -.00005109  00000-0 -30297-3 0  9995,2 52534  53.2177  13.5385 0000829  91.6074 268.5013 15.08862274 58682,6917.812,95.436,540.251,539.104,0.0
52534.0,STARLINK-3952,PAYLOAD,2023-05-28 20:32:40,15.08842785,9.02e-05,53.2177,9.3757,97.267,262.8424,0.00011116,1.482e-05,0.0,0 STARLINK-3952,1 52534U 22051B   23148.85602833  .00001482  00000-0  11116-3 0  9990,2 52534  53.2177   9.3757 0000902  97.2670 262.8424 15.08842785 58154,6917.872,95.437,540.361,539.113,0.0
52534.0,STARLINK-3952,PAYLOAD,2023-05-28 23:43:26,15.08849078,9.29e-05,53.2176,8.781,99.2748,260.8349,0.00016594,2.355e-05,0.0,0 STARLINK-3952,1 52534U 22051B   23148.98850305  .00002355  00000-0  16594-3 0  9998,2 52534  53.2176   8.7810 0000929  99.2748 260.8349 15.08849078 58171,6917.853,95.437,540.36,539.075,0.0
52534.0,STARLINK-3952,PAYLOAD,2023-05-29 20:23:28,15.08839154,0.000104,53.2185,4.916,116.4618,243.6481,4.4218e-05,4.16e-06,0.0,0 STARLINK-3952,1 52534U 22051B   23149.84963160  .00000416  00000-0  44218-4 0  9999,2 52534  53.2185   4.9160 0001040 116.4618 243.6481 15.08839154 58978,6917.883,95.438,540.467,539.029,0.0
